NORAD_CAT_ID,OBJECT_NAME,OBJECT_TYPE,EPOCH,MEAN_MOTION,ECCENTRICITY,INCLINATION,RA_OF_ASC_NODE,ARG_OF_PERICENTER,MEAN_ANOMALY,BSTAR,MEAN_MOTION_DOT,MEAN_MOTION_DDOT,TLE_LINE0,TLE_LINE1,TLE_LINE2,SEMIMAJOR_AXIS,PERIOD,APOGEE,PERIGEE,DECAYED
51960.0,STARLINK-3691,PAYLOAD,2024-08-06 22:14:41,15.06405495,0.0001587,53.0531,118.502,113.6938,246.4218,0.001263,0.00018584,0.0,0 STARLINK-3691,1 51960U 22025E   24219.92686569  .00018584  00000-0  12630-2 0  9991,2 51960  53.0531 118.5020 0001587 113.6938 246.4218 15.06405495133462,6925.332,95.592,548.296,546.098,0.0
51960.0,STARLINK-3691,PAYLOAD,2024-08-06 23:50:13,15.06408562,0.0001585,53.0531,118.2044,112.9719,247.1437,0.001174,0.00017252,0.0,0 STARLINK-3691,1 51960U 22025E   24219.99321184  .00017252  00000-0  11740-2 0  9999,2 51960  53.0531 118.2044 0001585 112.9719 247.1437 15.06408562134563,6925.322,95.592,548.285,546.09,0.0
51960.0,STARLINK-3691,PAYLOAD,2024-08-07 20:32:13,15.0641659,0.000158,53.0527,114.3322,112.7179,247.3977,0.00062598,9.059e-05,0.0,0 STARLINK-3691,1 51960U 22025E   24220.85571467  .00009059  00000-0  62598-3 0  9991,2 51960  53.0527 114.3322 0001580 112.7179 247.3977 15.06416590134692,6925.298,95.591,548.257,546.069,0.0
51960.0,STARLINK-3691,PAYLOAD,2024-08-08 22:00:51,15.06416596,0.0001489,53.0541,109.5646,106.096,254.0193,0.00074647,0.00010859,0.0,0 STARLINK-3691,1 51960U 22025E   24221.91725834  .00010859  00000-0  74647-3 0  9996,2 51960  53.0541 109.5646 0001489 106.0960 254.0193 15.06416596134854,6925.298,95.591,548.194,546.132,0.0
51960.0,STARLINK-3691,PAYLOAD,2024-08-08 23:36:23,15.06412803,0.0001588,53.0531,109.2732,92.0665,268.0506,0.00038231,5.419e-05,0.0,0 STARLINK-3691,1 51960U 22025E   24221.98360567  .00005419  00000-0  38231-3 0  9996,2 51960  53.0531 109.2732 0001588  92.0665 268.0506 15.06412803133772,6925.309,95.591,548.274,546.075,0.0
51960.0,STARLINK-3691,PAYLOAD,2024-08-09 09:09:37,15.06404175,0.0001251,53.0511,107.4856,80.0402,280.0728,2.8725e-05,1.47e-06,0.0,0 STARLINK-3691,1 51960U 22025E   24222.38168741  .00000147  00000-0  28725-4 0  9992,2 51960  53.0511 107.4856 0001251  80.0402 280.0728 15.06404175134921,6925.336,95.592,548.067,546.334,0.0
51960.0,STARLINK-3691,PAYLOAD,2024-08-09 21:53:56,15.0640317,0.0001711,53.0545,105.1054,110.2969,249.8204,0.0001312,1.673e-05,0.0,0 STARLINK-3691,1 51960U 22025E   24222.91246399  .00001673  00000-0  13120-3 0  9994,2 51960  53.0545 105.1054 0001711 110.2969 249.8204 15.06403170133912,6925.339,95.592,548.389,546.019,0.0
51960.0,STARLINK-3691,PAYLOAD,2024-08-10 01:05:01,15.06414934,0.000126,53.0534,104.5054,85.1033,275.01,0.00039082,5.547e-05,0.0,0 STARLINK-3691,1 51960U 22025E   24223.04515315  .00005547  00000-0  39082-3 0  9995,2 51960  53.0534 104.5054 0001260  85.1033 275.0100 15.06414934133932,6925.303,95.591,548.04,546.295,0.0
51960.0,STARLINK-3691,PAYLOAD,2024-08-10 20:11:30,15.06400602,0.0002073,53.0543,100.9274,79.8243,280.298,0.00017503,2.326e-05,0.0,0 STARLINK-3691,1 51960U 22025E   24223.84132084  .00002326  00000-0  17503-3 0  9997,2 51960  53.0543 100.9274 0002073  79.8243 280.2980 15.06400602135148,6925.347,95.592,548.647,545.776,0.0
51960.0,STARLINK-3691,PAYLOAD,2024-08-10 21:47:02,15.0640442,0.0001428,53.0533,100.6331,91.3547,268.7606,0.00017172,2.277e-05,0.0,0 STARLINK-3691,1 51960U 22025E   24223.90766491  .00002277  00000-0  17172-3 0  9996,2 51960  53.0533 100.6331 0001428  91.3547 268.7606 15.06404420134065,6925.335,95.592,548.189,546.211,0.0
51960.0,STARLINK-3691,PAYLOAD,2024-08-11 08:55:49,15.06387101,0.0001767,53.0516,98.5493,73.0259,287.0924,-8.0573e-05,-1.481e-05,0.0,0 STARLINK-3691,1 51960U 22025E   24224.37210037 -.00001481  00000-0 -80573-4 0  9992,2 51960  53.0516  98.5493 0001767  73.0259 287.0924 15.06387101135225,6925.388,95.593,548.477,546.029,0.0
51960.0,STARLINK-3691,PAYLOAD,2024-08-11 21:40:08,15.0639483,0.0001358,53.0535,96.1678,68.0284,292.0849,0.00023822,3.268e-05,0.0,0 STARLINK-3691,1 51960U 22025E   24224.90287569  .00003268  00000-0  23822-3 0  9991,2 51960  53.0535  96.1678 0001358  68.0284 292.0849 15.06394830134210,6925.364,95.592,548.17,546.289,0.0
51960.0,STARLINK-3691,PAYLOAD,2024-08-12 00:51:12,15.06413858,0.0001209,53.0538,95.5675,85.8783,274.2344,0.0010045,0.00014718,0.0,0 STARLINK-3691,1 51960U 22025E   24225.03556300  .00014718  00000-0  10045-2 0  9992,2 51960  53.0538  95.5675 0001209  85.8783 274.2344 15.06413858135326,6925.306,95.591,548.008,546.334,0.0
51960.0,STARLINK-3691,PAYLOAD,2024-08-12 08:48:54,15.06394747,0.0001173,53.0548,94.0768,98.3952,261.717,0.00029266,4.08e-05,0.0,0 STARLINK-3691,1 51960U 22025E   24225.36730012  .00004080  00000-0  29266-3 0  9999,2 51960  53.0548  94.0768 0001173  98.3952 261.7170 15.06394747135379,6925.365,95.592,548.042,546.417,0.0
51960.0,STARLINK-3691,PAYLOAD,2024-08-12 15:11:04,15.06405077,0.0001247,53.0536,92.8867,92.8863,267.2269,0.00053238,7.658e-05,0.0,0 STARLINK-3691,1 51960U 22025E   24225.63268750  .00007658  00000-0  53238-3 0  9994,2 51960  53.0536  92.8867 0001247  92.8863 267.2269 15.06405077134327,6925.333,95.592,548.062,546.334,0.0
51960.0,STARLINK-3691,PAYLOAD,2024-08-12 21:33:13,15.06432397,0.0001558,53.052,91.7031,64.6968,295.4182,0.0014015,0.00020674,0.0,0 STARLINK-3691,1 51960U 22025E   24225.89807109  .00020674  00000-0  14015-2 0  9991,2 51960  53.0520  91.7031 0001558  64.6968 295.4182 15.06432397135456,6925.249,95.59,548.193,546.035,0.0
51960.0,STARLINK-3691,PAYLOAD,2024-08-12 23:08:44,15.06449876,0.0001206,53.0536,91.3969,91.8616,268.2511,0.0019525,0.0002896,0.0,0 STARLINK-3691,1 51960U 22025E   24225.96440921  .00028960  00000-0  19525-2 0  9991,2 51960  53.0536  91.3969 0001206  91.8616 268.2511 15.06449876135466,6925.196,95.589,547.896,546.226,0.0
51960.0,STARLINK-3691,PAYLOAD,2024-08-13 15:04:10,15.06375912,0.0001645,53.0535,88.4202,87.8653,272.2524,-0.00046657,-7.22e-05,0.0,0 STARLINK-3691,1 51960U 22025E   24226.62789771 -.00007220  00000-0 -46657-3 0  9999,2 51960  53.0535  88.4202 0001645  87.8653 272.2524 15.06375912134473,6925.422,95.594,548.427,546.148,0.0
51960.0,STARLINK-3691,PAYLOAD,2024-08-13 21:26:20,15.06347873,0.0001811,53.0538,87.2281,95.0856,265.034,-0.0010098,-0.0001527,0.0,0 STARLINK-3691,1 51960U 22025E   24226.89329484 -.00015270  00000-0 -10098-2 0  9992,2 51960  53.0538  87.2281 0001811  95.0856 265.0340 15.06347873135608,6925.508,95.595,548.628,546.119,0.0
51960.0,STARLINK-3691,PAYLOAD,2024-08-14 00:37:25,15.0634528,0.0001708,53.0529,86.632,92.1766,267.9418,-0.00052205,-8.037e-05,0.0,0 STARLINK-3691,1 51960U 22025E   24227.02599491 -.00008037  00000-0 -52205-3 0  9995,2 51960  53.0529  86.6320 0001708  92.1766 267.9418 15.06345280134536,6925.516,95.596,548.564,546.198,0.0
51960.0,STARLINK-3691,PAYLOAD,2024-08-14 19:43:54,15.06398361,0.0001968,53.0534,83.0583,81.0947,279.0265,0.0013421,0.00019765,0.0,0 STARLINK-3691,1 51960U 22025E   24227.82216246  .00019765  00000-0  13421-2 0  9991,2 51960  53.0534  83.0583 0001968  81.0947 279.0265 15.06398361135746,6925.354,95.592,548.581,545.856,0.0
51960.0,STARLINK-3691,PAYLOAD,2024-08-14 21:19:27,15.06402056,0.0002156,53.0538,82.7623,85.4114,274.7121,0.0022969,0.00034099,0.0,0 STARLINK-3691,1 51960U 22025E   24227.88850999  .00034099  00000-0  22969-2 0  9990,2 51960  53.0538  82.7623 0002156  85.4114 274.7121 15.06402056134665,6925.342,95.592,548.7,545.714,0.0
51960.0,STARLINK-3691,PAYLOAD,2024-08-15 06:52:40,15.06420688,0.000185,53.0534,80.9736,80.0463,280.0735,0.00064532,9.349e-05,0.0,0 STARLINK-3691,1 51960U 22025E   24228.28658174  .00009349  00000-0  64532-3 0  9999,2 51960  53.0534  80.9736 0001850  80.0463 280.0735 15.06420688134723,6925.285,95.591,548.431,545.869,0.0
51960.0,STARLINK-3691,PAYLOAD,2024-08-15 21:12:31,15.06413722,0.0001964,53.0547,78.2963,87.1607,272.9606,7.8293e-05,8.85e-06,0.0,0 STARLINK-3691,1 51960U 22025E   24228.88369800  .00000885  00000-0  78293-4 0  9996,2 51960  53.0547  78.2963 0001964  87.1607 272.9606 15.06413722135902,6925.307,95.591,548.532,545.811,0.0
51960.0,STARLINK-3691,PAYLOAD,2024-08-16 21:05:34,15.06438618,0.0001381,53.0544,73.8257,97.9109,262.2036,0.00038369,5.444e-05,0.0,0 STARLINK-3691,1 51960U 22025E   24229.87887420  .00005444  00000-0  38369-3 0  9994,2 51960  53.0544  73.8257 0001381  97.9109 262.2036 15.06438618136052,6925.23,95.59,548.052,546.139,0.0
51960.0,STARLINK-3691,PAYLOAD,2024-08-17 13:00:59,15.06388345,6.98e-05,53.055,70.8455,89.5905,270.5164,-0.00044133,-6.846e-05,0.0,0 STARLINK-3691,1 51960U 22025E   24230.54235550 -.00006846  00000-0 -44133-3 0  9996,2 51960  53.0550  70.8455 0000698  89.5905 270.5164 15.06388345136153,6925.384,95.593,547.733,546.766,0.0
51960.0,STARLINK-3691,PAYLOAD,2024-08-18 12:54:05,15.06386502,9.41e-05,53.0546,66.3795,110.9264,249.1826,-0.00017564,-2.895e-05,0.0,0 STARLINK-3691,1 51960U 22025E   24231.53756422 -.00002895  00000-0 -17564-3 0  9990,2 51960  53.0546  66.3795 0000941 110.9264 249.1826 15.06386502136300,6925.39,95.593,547.907,546.603,0.0
51960.0,STARLINK-3691,PAYLOAD,2024-08-18 19:16:14,15.06399444,0.000146,53.0547,65.1862,122.1285,237.9846,0.00024624,3.388e-05,0.0,0 STARLINK-3691,1 51960U 22025E   24231.80295038  .00003388  00000-0  24624-3 0  9992,2 51960  53.0547  65.1862 0001460 122.1285 237.9846 15.06399444136348,6925.35,95.592,548.226,546.204,0.0
51960.0,STARLINK-3691,PAYLOAD,2024-08-19 12:47:11,15.06397228,0.0001384,53.0537,61.9134,96.8517,263.2629,0.00052617,7.564e-05,0.0,0 STARLINK-3691,1 51960U 22025E   24232.53277301  .00007564  00000-0  52617-3 0  9999,2 51960  53.0537  61.9134 0001384  96.8517 263.2629 15.06397228136454,6925.357,95.592,548.181,546.264,0.0
51960.0,STARLINK-3691,PAYLOAD,2024-08-19 22:20:25,15.0640679,0.0001372,53.0536,60.1262,96.9836,263.1309,0.00056148,8.093e-05,0.0,0 STARLINK-3691,1 51960U 22025E   24232.93085157  .00008093  00000-0  56148-3 0  9990,2 51960  53.0536  60.1262 0001372  96.9836 263.1309 15.06406790135423,6925.328,95.592,548.143,546.243,0.0
